NORAD_CAT_ID,OBJECT_NAME,OBJECT_TYPE,EPOCH,MEAN_MOTION,ECCENTRICITY,INCLINATION,RA_OF_ASC_NODE,ARG_OF_PERICENTER,MEAN_ANOMALY,BSTAR,MEAN_MOTION_DOT,MEAN_MOTION_DDOT,TLE_LINE0,TLE_LINE1,TLE_LINE2,SEMIMAJOR_AXIS,PERIOD,APOGEE,PERIGEE,DECAYED
50187.0,STARLINK-3272,PAYLOAD,2024-05-31 13:10:49,15.08840557,0.00012,53.2179,264.2456,85.4298,274.6831,9.6101e-05,1.242e-05,0.0,0 STARLINK-3272,1 50187U 21125AH  24152.54918904  .00001242  00000-0  96101-4 0  9996,2 50187  53.2179 264.2456 0001200  85.4298 274.6831 15.08840557139027,6917.879,95.438,540.574,538.914,0.0
50187.0,STARLINK-3272,PAYLOAD,2024-05-31 17:56:59,15.08840973,0.0001142,53.2173,263.3559,76.3695,283.7424,0.00011093,1.478e-05,0.0,0 STARLINK-3272,1 50187U 21125AH  24152.74790848  .00001478  00000-0  11093-3 0  9990,2 50187  53.2173 263.3559 0001142  76.3695 283.7424 15.08840973135982,6917.877,95.437,540.532,538.952,0.0
50187.0,STARLINK-3272,PAYLOAD,2024-06-01 13:01:38,15.08829865,0.0001333,53.2174,259.7878,71.7904,288.3234,-9.8101e-05,-1.848e-05,0.0,0 STARLINK-3272,1 50187U 21125AH  24153.54280396 -.00001848  00000-0 -98101-4 0  9990,2 50187  53.2174 259.7878 0001333  71.7904 288.3234 15.08829865136102,6917.911,95.438,540.699,538.854,0.0
50187.0,STARLINK-3272,PAYLOAD,2024-06-01 14:37:01,15.08831946,0.0001291,53.2175,259.4918,76.0634,284.0501,-7.4794e-05,-1.478e-05,0.0,0 STARLINK-3272,1 50187U 21125AH  24153.60904208 -.00001478  00000-0 -74794-4 0  9993,2 50187  53.2175 259.4918 0001291  76.0634 284.0501 15.08831946139180,6917.905,95.438,540.663,538.877,0.0
50187.0,STARLINK-3272,PAYLOAD,2024-06-02 00:09:19,15.08840844,0.0001339,53.218,257.7064,72.5447,287.5692,1.8074e-05,0.0,0.0,0 STARLINK-3272,1 50187U 21125AH  24154.00647445 -.00000000  00000-0  18074-4 0  9993,2 50187  53.2180 257.7064 0001339  72.5447 287.5692 15.08840844136177,6917.878,95.438,540.669,538.817,0.0
50187.0,STARLINK-3272,PAYLOAD,2024-06-02 12:52:24,15.08838292,0.0001217,53.2163,255.3289,69.8011,290.3112,7.8118e-05,9.56e-06,0.0,0 STARLINK-3272,1 50187U 21125AH  24154.53639489  .00000956  00000-0  78118-4 0  9994,2 50187  53.2163 255.3289 0001217  69.8011 290.3112 15.08838292139325,6917.886,95.438,540.593,538.909,0.0
50187.0,STARLINK-3272,PAYLOAD,2024-06-02 16:03:10,15.08841273,0.0001359,53.2168,254.7342,64.4162,295.6971,0.00012075,1.634e-05,0.0,0 STARLINK-3272,1 50187U 21125AH  24154.66887263  .00001634  00000-0  12075-3 0  9996,2 50187  53.2168 254.7342 0001359  64.4162 295.6971 15.08841273139344,6917.876,95.437,540.682,538.801,0.0
50187.0,STARLINK-3272,PAYLOAD,2024-06-03 00:00:05,15.08849252,0.0001333,53.2169,253.2475,71.6641,288.4496,0.00013658,1.887e-05,0.0,0 STARLINK-3272,1 50187U 21125AH  24155.00006633  .00001887  00000-0  13658-3 0  9997,2 50187  53.2169 253.2475 0001333  71.6641 288.4496 15.08849252136322,6917.852,95.437,540.639,538.795,0.0
50187.0,STARLINK-3272,PAYLOAD,2024-06-03 12:43:11,15.08838389,0.0001564,53.2171,250.8653,89.5735,270.5437,0.00019093,2.752e-05,0.0,0 STARLINK-3272,1 50187U 21125AH  24155.52999347  .00002752  00000-0  19093-3 0  9998,2 50187  53.2171 250.8653 0001564  89.5735 270.5437 15.08838389136409,6917.885,95.438,540.832,538.668,0.0
50187.0,STARLINK-3272,PAYLOAD,2024-06-03 23:50:52,15.08848769,0.0001349,53.2151,248.7854,84.6026,275.512,0.00012657,1.727e-05,0.0,0 STARLINK-3272,1 50187U 21125AH  24155.99366743  .00001727  00000-0  12657-3 0  9997,2 50187  53.2151 248.7854 0001349  84.6026 275.5120 15.08848769136470,6917.854,95.437,540.652,538.785,0.0
50187.0,STARLINK-3272,PAYLOAD,2024-06-04 12:33:58,15.08837294,0.0001136,53.2168,246.405,96.4189,263.6933,0.00014596,2.036e-05,0.0,0 STARLINK-3272,1 50187U 21125AH  24156.52359418  .00002036  00000-0  14596-3 0  9996,2 50187  53.2168 246.4050 0001136  96.4189 263.6933 15.08837294136556,6917.889,95.438,540.54,538.968,0.0
50187.0,STARLINK-3272,PAYLOAD,2024-06-04 15:44:44,15.0884748,0.0001442,53.2162,245.8103,94.0095,266.1062,3.3523e-05,2.46e-06,0.0,0 STARLINK-3272,1 50187U 21125AH  24156.65607028  .00000246  00000-0  33523-4 0  9996,2 50187  53.2162 245.8103 0001442  94.0095 266.1062 15.08847480139644,6917.858,95.437,540.72,538.725,0.0
50187.0,STARLINK-3272,PAYLOAD,2024-06-05 12:24:46,15.08833127,0.0001245,53.215,241.9453,96.4137,263.6997,2.7234e-06,-2.45e-06,0.0,0 STARLINK-3272,1 50187U 21125AH  24157.51720001 -.00000245  00000-0  27234-5 0  9992,2 50187  53.2150 241.9453 0001245  96.4137 263.6997 15.08833127136706,6917.901,95.438,540.628,538.905,0.0
50187.0,STARLINK-3272,PAYLOAD,2024-06-05 15:35:32,15.08834979,0.0001262,53.2164,241.351,97.5565,262.557,-2.7954e-05,-7.33e-06,0.0,0 STARLINK-3272,1 50187U 21125AH  24157.64968009 -.00000733  00000-0 -27954-4 0  9999,2 50187  53.2164 241.3510 0001262  97.5565 262.5570 15.08834979139798,6917.896,95.438,540.634,538.888,0.0
50187.0,STARLINK-3272,PAYLOAD,2024-06-06 12:15:32,15.08842935,0.000118,53.2163,237.4883,94.406,265.7066,4.6312e-05,4.49e-06,0.0,0 STARLINK-3272,1 50187U 21125AH  24158.51079627  .00000449  00000-0  46312-4 0  9996,2 50187  53.2163 237.4883 0001180  94.4060 265.7066 15.08842935136851,6917.871,95.437,540.553,538.92,0.0
50187.0,STARLINK-3272,PAYLOAD,2024-06-07 08:55:34,15.08833004,0.0001152,53.2166,233.6199,89.0271,271.0853,0.00014171,1.968e-05,0.0,0 STARLINK-3272,1 50187U 21125AH  24159.37192219  .00001968  00000-0  14171-3 0  9998,2 50187  53.2166 233.6199 0001152  89.0271 271.0853 15.08833004136980,6917.902,95.438,540.564,538.97,0.0
50187.0,STARLINK-3272,PAYLOAD,2024-06-07 21:38:38,15.08842996,0.0001379,53.2176,231.2414,92.3474,267.7676,0.00017544,2.506e-05,0.0,0 STARLINK-3272,1 50187U 21125AH  24159.90183742  .00002506  00000-0  17544-3 0  9994,2 50187  53.2176 231.2414 0001379  92.3474 267.7676 15.08842996140135,6917.871,95.437,540.69,538.782,0.0
50187.0,STARLINK-3272,PAYLOAD,2024-06-08 13:32:29,15.0884929,0.0001586,53.2173,228.2693,88.6779,271.4395,0.00014096,1.957e-05,0.0,0 STARLINK-3272,1 50187U 21125AH  24160.56423490  .00001957  00000-0  14096-3 0  9993,2 50187  53.2173 228.2693 0001586  88.6779 271.4395 15.08849290140238,6917.852,95.437,540.814,538.62,0.0
50187.0,STARLINK-3272,PAYLOAD,2024-06-08 21:29:24,15.08860487,0.0001744,53.2168,226.7808,70.3176,289.8004,0.00027757,4.135e-05,0.0,0 STARLINK-3272,1 50187U 21125AH  24160.89542748  .00004135  00000-0  27757-3 0  9996,2 50187  53.2168 226.7808 0001744  70.3176 289.8004 15.08860487140284,6917.818,95.436,540.889,538.476,0.0
50187.0,STARLINK-3272,PAYLOAD,2024-06-09 13:23:17,15.08830653,0.0001566,53.216,223.807,76.149,283.9676,-4.0934e-05,-9.39e-06,0.0,0 STARLINK-3272,1 50187U 21125AH  24161.55784484 -.00000939  00000-0 -40934-4 0  9998,2 50187  53.2160 223.8070 0001566  76.1490 283.9676 15.08830653137312,6917.909,95.438,540.857,538.691,0.0
50187.0,STARLINK-3272,PAYLOAD,2024-06-09 21:20:13,15.08837432,0.0001615,53.2159,222.3215,76.3527,283.7645,3.84e-05,3.23e-06,0.0,0 STARLINK-3272,1 50187U 21125AH  24161.88904171  .00000323  00000-0  38400-4 0  9991,2 50187  53.2159 222.3215 0001615  76.3527 283.7645 15.08837432140436,6917.888,95.438,540.87,538.636,0.0
50187.0,STARLINK-3272,PAYLOAD,2024-06-10 03:41:45,15.08839864,0.0001643,53.2162,221.1314,76.5922,283.5254,0.00015277,2.144e-05,0.0,0 STARLINK-3272,1 50187U 21125AH  24162.15400254  .00002144  00000-0  15277-3 0  9994,2 50187  53.2162 221.1314 0001643  76.5922 283.5254 15.08839864137407,6917.881,95.438,540.882,538.609,0.0
50187.0,STARLINK-3272,PAYLOAD,2024-06-10 11:38:41,15.08845183,0.0001465,53.214,219.6448,73.6717,286.4436,0.00079452,0.00012381,0.0,0 STARLINK-3272,1 50187U 21125AH  24162.48520360  .00012381  00000-0  79452-3 0  9990,2 50187  53.2140 219.6448 0001465  73.6717 286.4436 15.08845183140527,6917.865,95.437,540.743,538.716,0.0
50187.0,STARLINK-3272,PAYLOAD,2024-06-11 09:54:05,15.08850152,0.0001452,53.2141,215.4813,77.7207,282.3947,0.00053718,8.274e-05,0.0,0 STARLINK-3272,1 50187U 21125AH  24163.41256070  .00008274  00000-0  53718-3 0  9991,2 50187  53.2141 215.4813 0001452  77.7207 282.3947 15.08850152140662,6917.849,95.437,540.719,538.71,0.0
50187.0,STARLINK-3272,PAYLOAD,2024-06-12 06:34:06,15.08839161,0.0001846,53.2159,211.6145,93.7248,266.3955,0.00021048,3.063e-05,0.0,0 STARLINK-3272,1 50187U 21125AH  24164.27368403  .00003063  00000-0  21048-3 0  9992,2 50187  53.2159 211.6145 0001846  93.7248 266.3955 15.08839161137728,6917.883,95.438,541.025,538.471,0.0
50187.0,STARLINK-3272,PAYLOAD,2024-06-12 09:44:52,15.08834378,0.0001684,53.2169,211.0201,89.6484,270.4701,-5.2165e-05,-1.118e-05,0.0,0 STARLINK-3272,1 50187U 21125AH  24164.40616583 -.00001118  00000-0 -52165-4 0  9998,2 50187  53.2169 211.0201 0001684  89.6484 270.4701 15.08834378140816,6917.898,95.438,540.928,538.598,0.0
50187.0,STARLINK-3272,PAYLOAD,2024-06-13 09:35:39,15.08846269,0.0001437,53.2154,206.5605,85.2091,274.9065,0.00029076,4.343e-05,0.0,0 STARLINK-3272,1 50187U 21125AH  24165.39976381  .00004343  00000-0  29076-3 0  9997,2 50187  53.2154 206.5605 0001437  85.2091 274.9065 15.08846269137897,6917.861,95.437,540.72,538.732,0.0
50187.0,STARLINK-3272,PAYLOAD,2024-06-14 12:37:13,15.08839558,0.0001372,53.2151,201.5041,82.8531,277.2617,8.8537e-05,1.121e-05,0.0,0 STARLINK-3272,1 50187U 21125AH  24166.52584633  .00001121  00000-0  88537-4 0  9997,2 50187  53.2151 201.5041 0001372  82.8531 277.2617 15.08839558141137,6917.882,95.438,540.696,538.798,0.0
50187.0,STARLINK-3272,PAYLOAD,2024-06-14 18:58:45,15.088417,0.0001409,53.2153,200.315,85.4413,274.674,9.2345e-05,1.182e-05,0.0,0 STARLINK-3272,1 50187U 21125AH  24166.79080517  .00001182  00000-0  92345-4 0  9997,2 50187  53.2153 200.3150 0001409  85.4413 274.6740 15.08841700141170,6917.875,95.437,540.715,538.765,0.0
50187.0,STARLINK-3272,PAYLOAD,2024-06-15 09:17:13,15.08841231,0.0001426,53.2158,197.6389,84.9772,275.1383,3.8909e-05,3.31e-06,0.0,0 STARLINK-3272,1 50187U 21125AH  24167.38696537  .00000331  00000-0  38909-4 0  9999,2 50187  53.2158 197.6389 0001426  84.9772 275.1383 15.08841231141266,6917.877,95.437,540.728,538.755,0.0
